{
    "links": {
        "self": "http://www.neowsapp.com/rest/v1/neo/3580965?api_key=iIulBulltgU6a56xZRHN4H3l9WmuAYTsLGpBGhQ2"
    },
    "id": "3580965",
    "neo_reference_id": "3580965",
    "name": "(2011 TP)",
    "designation": "2011 TP",
    "nasa_jpl_url": "http://ssd.jpl.nasa.gov/sbdb.cgi?sstr=3580965",
    "absolute_magnitude_h": 26.5,
    "estimated_diameter": {
        "kilometers": {
            "estimated_diameter_min": 0.0133215567,
            "estimated_diameter_max": 0.0297879063
        },
        "meters": {
            "estimated_diameter_min": 13.3215566698,
            "estimated_diameter_max": 29.7879062798
        },
        "miles": {
            "estimated_diameter_min": 0.008277629,
            "estimated_diameter_max": 0.0185093411
        },
        "feet": {
            "estimated_diameter_min": 43.7058959846,
            "estimated_diameter_max": 97.7293544391
        }
    },
    "is_potentially_hazardous_asteroid": false,
    "close_approach_data": [
        {
            "close_approach_date": "2011-10-04",
            "close_approach_date_full": "2011-Oct-04 21:09",
            "epoch_date_close_approach": 1317762540000,
            "relative_velocity": {
                "kilometers_per_second": "9.9263500323",
                "kilometers_per_hour": "35734.8601163373",
                "miles_per_hour": "22204.2523872875"
            },
            "miss_distance": {
                "astronomical": "0.0188289353",
                "lunar": "7.3244558317",
                "kilometers": "2816768.615247811",
                "miles": "1750258.8569333518"
            },
            "orbiting_body": "Earth"
        }
    ],
    "orbital_data": {
        "orbit_id": "8",
        "orbit_determination_date": "2019-07-17 06:09:34",
        "first_observation_date": "2011-10-02",
        "last_observation_date": "2011-10-05",
        "data_arc_in_days": 3,
        "observations_used": 25,
        "orbit_uncertainty": "8",
        "minimum_orbit_intersection": ".0174435",
        "jupiter_tisserand_invariant": "4.030",
        "epoch_osculation": "2455837.5",
        "eccentricity": ".4535115665996771",
        "semi_major_axis": "1.72399848336954",
        "inclination": "9.555729225452612",
        "ascending_node_longitude": "7.605434795076411",
        "orbital_period": "826.8062407270005",
        "perihelion_distance": ".9421452303611525",
        "perihelion_argument": "43.2191673753602",
        "aphelion_distance": "2.505851736377928",
        "perihelion_time": "2455871.128882569721",
        "mean_anomaly": "345.357636252897",
        "mean_motion": ".4354103564620611",
        "equinox": "J2000",
        "orbit_class": {
            "orbit_class_type": "APO",
            "orbit_class_description": "Near-Earth asteroid orbits which cross the Earth’s orbit similar to that of 1862 Apollo",
            "orbit_class_range": "a (semi-major axis) > 1.0 AU; q (perihelion) < 1.017 AU"
        }
    },
    "is_sentry_object": false
}